OBJECT_NAME,OBJECT_ID,EPOCH,MEAN_MOTION,ECCENTRICITY,INCLINATION,RA_OF_ASC_NODE,ARG_OF_PERICENTER,MEAN_ANOMALY,EPHEMERIS_TYPE,CLASSIFICATION_TYPE,NORAD_CAT_ID,ELEMENT_SET_NO,REV_AT_EPOCH,BSTAR,MEAN_MOTION_DOT,MEAN_MOTION_DDOT
STARLINK-11151 [DTC],2024-112M,2026-05-19T02:30:03.613536,15.69699496,.00007389,53.1597,278.9107,85.4010,274.7092,0,U,60049,999,11204,.27641605E-4,.276E-4,0
STARLINK-11137 [DTC],2024-112N,2026-05-19T02:23:00.020256,15.69699553,.00014253,53.1609,278.8793,82.5735,277.5445,0,U,60050,999,11204,.21028072E-4,.1958E-4,0
STARLINK-31811,2024-112P,2026-05-19T07:05:34.471968,15.30189788,.00012415,53.1603,110.2499,87.1612,272.9531,0,U,60051,999,10940,.78710133E-4,.1972E-4,0
STARLINK-31775,2024-112Q,2026-05-19T07:08:36.549600,15.30191935,.00012057,53.1600,110.2671,93.1733,266.9405,0,U,60052,999,10940,.77760739E-4,.1944E-4,0
STARLINK-31793,2024-112R,2026-05-19T04:09:36.775584,15.30209195,.00012481,53.1597,110.9135,90.8721,269.2423,0,U,60053,999,10938,-.84634492E-4,-.2866E-4,0
STARLINK-31735,2024-112S,2026-05-19T05:25:26.393952,15.30190005,.00012719,53.1594,110.5267,91.7953,268.3193,0,U,60054,999,10939,.47803646E-4,.1056E-4,0
STARLINK-31788,2024-112T,2026-05-19T05:20:52.984608,15.30190072,.00012735,53.1597,110.5075,92.8836,267.2311,0,U,60055,999,10939,.52148918E-4,.1185E-4,0
STARLINK-31825,2024-112U,2026-05-19T07:04:02.917344,15.30191970,.0001318,53.1598,110.2476,90.5473,269.5678,0,U,60056,999,10940,.46613061E-4,.1021E-4,0
STARLINK-31437,2024-112V,2026-05-19T07:13:10.003872,15.30189904,.00012833,53.1598,110.2867,90.9256,269.1892,0,U,60057,999,10940,.61282075E-4,.1456E-4,0
STARLINK-11181 [DTC],2024-113A,2026-05-18T21:07:27.691104,15.69717986,.0001093,53.1586,205.3297,91.0797,269.0346,0,U,60059,999,11058,-.10214E-4,-.1826E-4,0
STARLINK-11176 [DTC],2024-113B,2026-05-19T07:42:12.131136,15.69692561,.00010146,53.1587,203.0993,94.7557,265.3576,0,U,60060,999,11065,.6775398E-5,.232E-5,0
STARLINK-11167 [DTC],2024-113C,2026-05-18T11:43:14.062944,15.69704029,.00011926,53.1591,207.1469,102.1888,257.9264,0,U,60061,999,11082,.8699079E-5,.465E-5,0
STARLINK-11166 [DTC],2024-113D,2026-05-18T11:36:10.566432,15.69720702,.00012226,53.1570,207.1142,93.0191,267.0967,0,U,60062,999,11052,.78103859E-4,.8888E-4,0
STARLINK-11165 [DTC],2024-113E,2026-05-18T11:29:06.397728,15.69714480,.00008084,53.1584,207.0816,41.9945,318.1135,0,U,60063,999,11052,-.15682559E-4,-.2488E-4,0
STARLINK-11169 [DTC],2024-113F,2026-05-18T11:22:04.719072,15.69690280,.00012912,53.1589,207.0460,55.8380,304.2761,0,U,60064,999,11052,-.36426473E-4,-.4995E-4,0
STARLINK-11102 [DTC],2024-113G,2026-05-19T04:03:29.937600,15.69701265,.0001111,53.1577,203.5646,68.4315,291.6821,0,U,60065,999,11063,.31143988E-4,.3185E-4,0
STARLINK-11141 [DTC],2024-113H,2026-05-19T03:56:26.300256,15.69696347,.00010854,53.1589,203.5318,77.2742,282.8397,0,U,60066,999,11063,.26239516E-4,.259E-4,0
STARLINK-11153 [DTC],2024-113J,2026-05-18T21:42:46.664064,15.69714331,.0001208,53.1591,205.4881,82.0025,278.1130,0,U,60067,999,11058,.14268E-4,.114E-4,0
STARLINK-11170 [DTC],2024-113K,2026-05-18T21:35:42.864288,15.69713740,.0001141,53.1581,205.4570,74.2631,285.8513,0,U,60068,999,11058,.23071E-4,.2207E-4,0
STARLINK-11171 [DTC],2024-113L,2026-05-18T21:28:39.544896,15.69722870,.0001036,53.1564,205.4205,78.2394,281.8740,0,U,60069,999,11058,.10176E-3,.11764E-3,0
STARLINK-11186 [DTC],2024-113M,2026-05-19T05:00:00.932832,15.69722498,.0001499,53.1574,203.8206,80.9167,279.2020,0,U,60070,999,11104,.7512283E-4,.8526E-4,0
STARLINK-11184 [DTC],2024-113N,2026-05-18T21:14:32.487072,15.69724163,.0001023,53.1563,205.3960,94.8364,265.2770,0,U,60071,999,11058,.10018E-3,.11572E-3,0
STARLINK-32032,2024-113U,2026-05-18T00:06:23.293728,15.34395852,.00007519,53.1634,36.3536,83.3418,276.7670,0,U,60077,999,10785,-.47392607E-4,-.1976E-4,0
KINEIS-1B,2024-114A,2026-05-19T07:55:05.532096,14.80570946,.00027455,97.9846,163.6540,155.5951,204.5391,0,U,60079,999,10313,.73121641E-4,.508E-5,0
KINEIS-1C,2024-114C,2026-05-19T07:06:20.949120,14.80574015,.00006162,97.9858,163.4621,81.3285,278.7997,0,U,60081,999,10310,.7431774E-4,.517E-5,0
KINEIS-1D,2024-114D,2026-05-19T07:18:37.782144,14.76215051,.00004126,97.9892,159.7548,35.7049,324.4189,0,U,60082,999,10286,.56780623E-4,.342E-5,0
KINEIS-1E,2024-114E,2026-05-19T07:32:27.032928,14.80430169,.0001396,97.8989,163.1811,335.9898,24.1249,0,U,60083,999,10311,-.5605E-5,-.94E-6,0
KINEIS-1A,2024-114F,2026-05-19T08:20:26.896128,14.80517252,.0003031,97.8975,163.3268,216.0776,144.0232,0,U,60084,999,10312,-.1549E-3,-.1237E-4,0
ASTRA 1P (SES-24),2024-115A,2026-05-19T05:48:52.808832,1.00269364,.00013347,0.0793,36.0532,299.8339,7.4553,0,U,60086,999,690,0,.119E-5,0
CATCH-1,2024-116A,2026-05-18T19:43:02.547264,14.84817390,.00041396,28.9960,297.0231,121.8405,238.2592,0,U,60088,999,10329,.12015974E-3,.1171E-4,0
