STARLINK-11151 [DTC]    
1 60049U 24112M   26139.10420849  .00002760  00000+0  27642-4 0  9997
2 60049  53.1597 278.9107 0000738  85.4010 274.7092 15.69699496112044
STARLINK-11137 [DTC]    
1 60050U 24112N   26139.09930579  .00001958  00000+0  21028-4 0  9993
2 60050  53.1609 278.8793 0001425  82.5735 277.5445 15.69699553112043
STARLINK-31811          
1 60051U 24112P   26139.29553787  .00001972  00000+0  78710-4 0  9994
2 60051  53.1603 110.2499 0001241  87.1612 272.9531 15.30189788109404
STARLINK-31775          
1 60052U 24112Q   26139.29764525  .00001944  00000+0  77761-4 0  9993
2 60052  53.1600 110.2671 0001205  93.1733 266.9405 15.30191935109405
STARLINK-31793          
1 60053U 24112R   26139.17334231 -.00002866  00000+0 -84634-4 0  9991
2 60053  53.1597 110.9135 0001248  90.8721 269.2423 15.30209195109382
STARLINK-31735          
1 60054U 24112S   26139.22599993  .00001056  00000+0  47804-4 0  9992
2 60054  53.1594 110.5267 0001271  91.7953 268.3193 15.30190005109399
STARLINK-31788          
1 60055U 24112T   26139.22283547  .00001185  00000+0  52149-4 0  9999
2 60055  53.1597 110.5075 0001273  92.8836 267.2311 15.30190072109398
STARLINK-31825          
1 60056U 24112U   26139.29447821  .00001021  00000+0  46613-4 0  9992
2 60056  53.1598 110.2476 0001318  90.5473 269.5678 15.30191970109405
STARLINK-31437          
1 60057U 24112V   26139.30081023  .00001456  00000+0  61282-4 0  9994
2 60057  53.1598 110.2867 0001283  90.9256 269.1892 15.30189904109402
STARLINK-11181 [DTC]    
1 60059U 24113A   26138.88018161 -.00001826  00000+0 -10214-4 0  9994
2 60059  53.1586 205.3297 0001093  91.0797 269.0346 15.69717986110588
STARLINK-11176 [DTC]    
1 60060U 24113B   26139.32097374  .00000232  00000+0  67754-5 0  9999
2 60060  53.1587 203.0993 0001014  94.7557 265.3576 15.69692561110659
STARLINK-11167 [DTC]    
1 60061U 24113C   26138.48835721  .00000465  00000+0  86991-5 0  9994
2 60061  53.1591 207.1469 0001192 102.1888 257.9264 15.69704029110829
STARLINK-11166 [DTC]    
1 60062U 24113D   26138.48345563  .00008888  00000+0  78104-4 0  9998
2 60062  53.1570 207.1142 0001222  93.0191 267.0967 15.69720702110529
STARLINK-11165 [DTC]    
1 60063U 24113E   26138.47854627 -.00002488  00000+0 -15683-4 0  9999
2 60063  53.1584 207.0816 0000808  41.9945 318.1135 15.69714480110521
STARLINK-11169 [DTC]    
1 60064U 24113F   26138.47366573 -.00004995  00000+0 -36426-4 0  9991
2 60064  53.1589 207.0460 0001291  55.8380 304.2761 15.69690280110528
STARLINK-11102 [DTC]    
1 60065U 24113G   26139.16909650  .00003185  00000+0  31144-4 0  9998
2 60065  53.1577 203.5646 0001111  68.4315 291.6821 15.69701265110636
STARLINK-11141 [DTC]    
1 60066U 24113H   26139.16419329  .00002590  00000+0  26240-4 0  9998
2 60066  53.1589 203.5318 0001085  77.2742 282.8397 15.69696347110632
STARLINK-11153 [DTC]    
1 60067U 24113J   26138.90470676  .00001140  00000+0  14268-4 0  9999
2 60067  53.1591 205.4881 0001208  82.0025 278.1130 15.69714331110588
STARLINK-11170 [DTC]    
1 60068U 24113K   26138.89980167  .00002207  00000+0  23071-4 0  9996
2 60068  53.1581 205.4570 0001141  74.2631 285.8513 15.69713740110588
STARLINK-11171 [DTC]    
1 60069U 24113L   26138.89490214  .00011764  00000+0  10176-3 0  9995
2 60069  53.1564 205.4205 0001036  78.2394 281.8740 15.69722870110580
STARLINK-11186 [DTC]    
1 60070U 24113M   26139.20834413  .00008526  00000+0  75123-4 0  9992
2 60070  53.1574 203.8206 0001499  80.9167 279.2020 15.69722498111047
STARLINK-11184 [DTC]    
1 60071U 24113N   26138.88509823  .00011572  00000+0  10018-3 0  9996
2 60071  53.1563 205.3960 0001023  94.8364 265.2770 15.69724163110582
STARLINK-32032          
1 60077U 24113U   26138.00443627 -.00001976  00000+0 -47393-4 0  9991
2 60077  53.1634  36.3536 0000751  83.3418 276.7670 15.34395852107851
KINEIS-1B               
1 60079U 24114A   26139.32992514  .00000508  00000+0  73122-4 0  9991
2 60079  97.9846 163.6540 0002745 155.5951 204.5391 14.80570946103137
KINEIS-1C               
1 60081U 24114C   26139.29607580  .00000517  00000+0  74318-4 0  9994
2 60081  97.9858 163.4621 0000616  81.3285 278.7997 14.80574015103105
KINEIS-1D               
1 60082U 24114D   26139.30460396  .00000342  00000+0  56781-4 0  9999
2 60082  97.9892 159.7548 0000412  35.7049 324.4189 14.76215051102866
KINEIS-1E               
1 60083U 24114E   26139.31420177 -.00000094  00000+0 -56050-5 0  9990
2 60083  97.8989 163.1811 0001396 335.9898  24.1249 14.80430169103118
KINEIS-1A               
1 60084U 24114F   26139.34753352 -.00001237  00000+0 -15490-3 0  9999
2 60084  97.8975 163.3268 0003031 216.0776 144.0232 14.80517252103128
ASTRA 1P (SES-24)       
1 60086U 24115A   26139.24227788  .00000119  00000+0  00000+0 0  9993
2 60086   0.0793  36.0532 0001334 299.8339   7.4553  1.00269364  6904
CATCH-1                 
1 60088U 24116A   26138.82155726  .00001171  00000+0  12016-3 0  9994
2 60088  28.9960 297.0231 0004139 121.8405 238.2592 14.84817390103291
